[
    {
        "Altitude(m)": 568751.6348420675,
        "Argument of Periapsis(deg)": -0.015068773855314936,
        "Eccentricity": 0.0,
        "Inclination(deg)": 97.0,
        "Latitude(deg)": 38.06126936176134,
        "Longitude(deg)": 143.9338405519652,
        "Mean Anomaly(deg)": 141.69909551279167,
        "RAAN(deg)": 60.00396470241234,
        "Satellite Name": "Starlink Shell 3 1719",
        "Satellite Number": 1719,
        "Semi-Major Axis(m)": 6938478.169268562,
        "Time(s)": 380
    },
    {
        "Altitude(m)": 568625.3430429893,
        "Argument of Periapsis(deg)": -0.015465320535717962,
        "Eccentricity": 0.0,
        "Inclination(deg)": 97.0,
        "Latitude(deg)": 37.441825270759004,
        "Longitude(deg)": 143.7706181534114,
        "Mean Anomaly(deg)": 142.3245717104967,
        "RAAN(deg)": 60.00406903668634,
        "Satellite Name": "Starlink Shell 3 1719",
        "Satellite Number": 1719,
        "Semi-Major Axis(m)": 6938478.169268562,
        "Time(s)": 390
    },
    {
        "Altitude(m)": 568500.6674229517,
        "Argument of Periapsis(deg)": -0.015861867216120987,
        "Eccentricity": 0.0,
        "Inclination(deg)": 97.0,
        "Latitude(deg)": 36.822187584572355,
        "Longitude(deg)": 143.60937815190448,
        "Mean Anomaly(deg)": 142.95004790820178,
        "RAAN(deg)": 60.00417337096035,
        "Satellite Name": "Starlink Shell 3 1719",
        "Satellite Number": 1719,
        "Semi-Major Axis(m)": 6938478.169268562,
        "Time(s)": 400
    },
    {
        "Altitude(m)": 568377.6909516744,
        "Argument of Periapsis(deg)": -0.01625841389652401,
        "Eccentricity": 0.0,
        "Inclination(deg)": 97.0,
        "Latitude(deg)": 36.2023614982762,
        "Longitude(deg)": 143.45004595196008,
        "Mean Anomaly(deg)": 143.57552410590677,
        "RAAN(deg)": 60.00427770523436,
        "Satellite Name": "Starlink Shell 3 1719",
        "Satellite Number": 1719,
        "Semi-Major Axis(m)": 6938478.169268562,
        "Time(s)": 410
    },
    {
        "Altitude(m)": 568256.4959989622,
        "Argument of Periapsis(deg)": -0.016654960576927034,
        "Eccentricity": 0.0,
        "Inclination(deg)": 97.0,
        "Latitude(deg)": 35.58235204671066,
        "Longitude(deg)": 143.29254965830268,
        "Mean Anomaly(deg)": 144.20100030361183,
        "RAAN(deg)": 60.00438203950837,
        "Satellite Name": "Starlink Shell 3 1719",
        "Satellite Number": 1719,
        "Semi-Major Axis(m)": 6938478.169268562,
        "Time(s)": 420
    },
    {
        "Altitude(m)": 568137.1642917538,
        "Argument of Periapsis(deg)": -0.01705150725733006,
        "Eccentricity": 0.0,
        "Inclination(deg)": 97.0,
        "Latitude(deg)": 34.96216411553262,
        "Longitude(deg)": 143.13682040007055,
        "Mean Anomaly(deg)": 144.82647650131688,
        "RAAN(deg)": 60.004486373782385,
        "Satellite Name": "Starlink Shell 3 1719",
        "Satellite Number": 1719,
        "Semi-Major Axis(m)": 6938478.169268562,
        "Time(s)": 430
    },
    {
        "Altitude(m)": 568019.7768713866,
        "Argument of Periapsis(deg)": -0.017448053937733084,
        "Eccentricity": 0.0,
        "Inclination(deg)": 97.0,
        "Latitude(deg)": 34.34180245151175,
        "Longitude(deg)": 142.98279266662936,
        "Mean Anomaly(deg)": 145.45195269902192,
        "RAAN(deg)": 60.00459070805639,
        "Satellite Name": "Starlink Shell 3 1719",
        "Satellite Number": 1719,
        "Semi-Major Axis(m)": 6938478.169268562,
        "Time(s)": 440
    },
    {
        "Altitude(m)": 567904.4140511687,
        "Argument of Periapsis(deg)": -0.017844600618136107,
        "Eccentricity": 0.0,
        "Inclination(deg)": 97.0,
        "Latitude(deg)": 33.72127167212945,
        "Longitude(deg)": 142.8304031412498,
        "Mean Anomaly(deg)": 146.07742889672693,
        "RAAN(deg)": 60.00469504233039,
        "Satellite Name": "Starlink Shell 3 1719",
        "Satellite Number": 1719,
        "Semi-Major Axis(m)": 6938478.169268562,
        "Time(s)": 450
    },
    {
        "Altitude(m)": 567791.1553741967,
        "Argument of Periapsis(deg)": -0.018241147298539134,
        "Eccentricity": 0.0,
        "Inclination(deg)": 97.0,
        "Latitude(deg)": 33.100576274527796,
        "Longitude(deg)": 142.67959105760158,
        "Mean Anomaly(deg)": 146.70290509443205,
        "RAAN(deg)": 60.0047993766044,
        "Satellite Name": "Starlink Shell 3 1719",
        "Satellite Number": 1719,
        "Semi-Major Axis(m)": 6938478.169268562,
        "Time(s)": 460
    },
    {
        "Altitude(m)": 567680.079571503,
        "Argument of Periapsis(deg)": -0.018637693978942157,
        "Eccentricity": 0.0,
        "Inclination(deg)": 97.0,
        "Latitude(deg)": 32.47972064385654,
        "Longitude(deg)": 142.53029856545763,
        "Mean Anomaly(deg)": 147.3283812921371,
        "RAAN(deg)": 60.004903710878416,
        "Satellite Name": "Starlink Shell 3 1719",
        "Satellite Number": 1719,
        "Semi-Major Axis(m)": 6938478.169268562,
        "Time(s)": 470
    },
    {
        "Altitude(m)": 567571.2645205371,
        "Argument of Periapsis(deg)": -0.019034240659345183,
        "Eccentricity": 0.0,
        "Inclination(deg)": 97.0,
        "Latitude(deg)": 31.858709061064626,
        "Longitude(deg)": 142.38246959206322,
        "Mean Anomaly(deg)": 147.95385748984214,
        "RAAN(deg)": 60.00500804515242,
        "Satellite Name": "Starlink Shell 3 1719",
        "Satellite Number": 1719,
        "Semi-Major Axis(m)": 6938478.169268562,
        "Time(s)": 480
    },
    {
        "Altitude(m)": 567464.7872039721,
        "Argument of Periapsis(deg)": -0.019430787339748207,
        "Eccentricity": 0.0,
        "Inclination(deg)": 97.0,
        "Latitude(deg)": 31.237545710169677,
        "Longitude(deg)": 142.23605022430303,
        "Mean Anomaly(deg)": 148.57933368754712,
        "RAAN(deg)": 60.00511237942644,
        "Satellite Name": "Starlink Shell 3 1719",
        "Satellite Number": 1719,
        "Semi-Major Axis(m)": 6938478.169268562,
        "Time(s)": 490
    },
    {
        "Altitude(m)": 567360.723668914,
        "Argument of Periapsis(deg)": -0.019827334020151237,
        "Eccentricity": 0.0,
        "Inclination(deg)": 97.0,
        "Latitude(deg)": 30.616234685044997,
        "Longitude(deg)": 142.09098909822322,
        "Mean Anomaly(deg)": 149.2048098852522,
        "RAAN(deg)": 60.005216713700435,
        "Satellite Name": "Starlink Shell 3 1719",
        "Satellite Number": 1719,
        "Semi-Major Axis(m)": 6938478.169268562,
        "Time(s)": 500
    },
    {
        "Altitude(m)": 567259.1489864727,
        "Argument of Periapsis(deg)": -0.020223880700554257,
        "Eccentricity": 0.0,
        "Inclination(deg)": 97.0,
        "Latitude(deg)": 29.99477999575939,
        "Longitude(deg)": 141.94723628251424,
        "Mean Anomaly(deg)": 149.83028608295723,
        "RAAN(deg)": 60.00532104797445,
        "Satellite Name": "Starlink Shell 3 1719",
        "Satellite Number": 1719,
        "Semi-Major Axis(m)": 6938478.169268562,
        "Time(s)": 510
    },
    {
        "Altitude(m)": 567160.1372118224,
        "Argument of Periapsis(deg)": -0.020620427380957283,
        "Eccentricity": 0.0,
        "Inclination(deg)": 97.0,
        "Latitude(deg)": 29.373185574495537,
        "Longitude(deg)": 141.80474368122094,
        "Mean Anomaly(deg)": 150.45576228066227,
        "RAAN(deg)": 60.005425382248454,
        "Satellite Name": "Starlink Shell 3 1719",
        "Satellite Number": 1719,
        "Semi-Major Axis(m)": 6938478.169268562,
        "Time(s)": 520
    },
    {
        "Altitude(m)": 567063.7613445885,
        "Argument of Periapsis(deg)": -0.021016974061360306,
        "Eccentricity": 0.0,
        "Inclination(deg)": 97.0,
        "Latitude(deg)": 28.751455281078083,
        "Longitude(deg)": 141.66346544236325,
        "Mean Anomaly(deg)": 151.0812384783673,
        "RAAN(deg)": 60.005529716522474,
        "Satellite Name": "Starlink Shell 3 1719",
        "Satellite Number": 1719,
        "Semi-Major Axis(m)": 6938478.169268562,
        "Time(s)": 530
    },
    {
        "Altitude(m)": 566970.0932898107,
        "Argument of Periapsis(deg)": -0.021413520741763333,
        "Eccentricity": 0.0,
        "Inclination(deg)": 97.0,
        "Latitude(deg)": 28.129592908139315,
        "Longitude(deg)": 141.52335685918422,
        "Mean Anomaly(deg)": 151.70671467607235,
        "RAAN(deg)": 60.00563405079649,
        "Satellite Name": "Starlink Shell 3 1719",
        "Satellite Number": 1719,
        "Semi-Major Axis(m)": 6938478.169268562,
        "Time(s)": 540
    },
    {
        "Altitude(m)": 566879.2038193115,
        "Argument of Periapsis(deg)": -0.021810067422166356,
        "Eccentricity": 0.0,
        "Inclination(deg)": 97.0,
        "Latitude(deg)": 27.507602185942297,
        "Longitude(deg)": 141.3843747893964,
        "Mean Anomaly(deg)": 152.3321908737774,
        "RAAN(deg)": 60.005738385070494,
        "Satellite Name": "Starlink Shell 3 1719",
        "Satellite Number": 1719,
        "Semi-Major Axis(m)": 6938478.169268562,
        "Time(s)": 550
    },
    {
        "Altitude(m)": 566791.1625336157,
        "Argument of Periapsis(deg)": -0.022206614102569383,
        "Eccentricity": 0.0,
        "Inclination(deg)": 97.0,
        "Latitude(deg)": 26.885486786885703,
        "Longitude(deg)": 141.24647807920303,
        "Mean Anomaly(deg)": 152.95766707148243,
        "RAAN(deg)": 60.0058427193445,
        "Satellite Name": "Starlink Shell 3 1719",
        "Satellite Number": 1719,
        "Semi-Major Axis(m)": 6938478.169268562,
        "Time(s)": 560
    }
]